{
  "type": "FeatureCollection",
  "features": [
    {
      "type": "Feature",
      "properties": {
        "adm3_name": "Menteng", "adm3_pcode": "ID3171040",
        "adm2_name": "Jakarta Pusat", "adm1_name": "DKI Jakarta"
      },
      "geometry": {
        "type": "Polygon",
        "coordinates": [[
          [106.83, -6.19], [106.84, -6.19], [106.84, -6.18], [106.835, -6.185], [106.83, -6.18], [106.83, -6.19]
        ]]
      }
    },
    {
      "type": "Feature",
      "properties": {
        "adm2_name": "Jakarta Pusat", "adm2_pcode": "ID3171", "adm1_name": "DKI Jakarta"
      },
      "geometry": {
        "type": "Polygon",
        "coordinates": [[[106.8, -6.2], [106.9, -6.2], [106.9, -6.1], [106.8, -6.1], [106.8, -6.2]]]
      }
    },
    {
      "type": "Feature",
      "properties": {
        "adm3_name": "Kendari Barat", "adm3_pcode": "ID7471040",
        "adm2_name": "Kota Kendari", "adm1_name": "Sulawesi Tenggara"
      },
      "geometry": {
        "type": "Polygon",
        "coordinates": [[
          [122.55, -3.99], [122.56, -3.99], [122.56, -3.98], [122.55, -3.98], [122.55, -3.99]
        ]]
      }
    },
    {
      "type": "Feature",
      "properties": {
        "adm3_name": "Tipulu", "adm3_pcode": "ID7471041",
        "adm2_name": "Kota Kendari", "adm1_name": "Sulawesi Tenggara"
      },
      "geometry": {
        "type": "MultiPolygon",
        "coordinates": [[[
          [122.56, -3.93], [122.57, -3.93], [122.57, -3.92], [122.56, -3.92], [122.56, -3.93]
        ]]]
      }
    }
  ]
}
